start=new Date('2022-12-20T00:00:00.000Z').valueOf();
sats=[{"OBJECT_TYPE":"PAYLOAD","BSTAR":"0.00011099000000","EPOCH":"2022-12-19T15:33:04.614912","ARG_OF_PERICENTER":"38.5511","APOAPSIS":"548.801","NORAD_CAT_ID":"46076","RCS_SIZE":"LARGE","ELEMENT_SET_NO":"999","PERIOD":"95.593","MEAN_ELEMENT_THEORY":"SGP4","OBJECT_NAME":"STARLINK-1552","SITE":"AFETR","TLE_LINE1":"1 46076U 20055BB  22353.64797008  .00001371  00000-0  11099-3 0  9996","INCLINATION":"53.0553","MEAN_ANOMALY":"321.5639","COUNTRY_CODE":"US","TLE_LINE2":"2 46076  53.0553 336.0811 0002256  38.5511 321.5639 15.06391760132032","EPHEMERIS_TYPE":"0","OBJECT_ID":"2020-055BB","SEMIMAJOR_AXIS":"6925.374","DECAY_DATE":null,"ECCENTRICITY":"0.00022560","MEAN_MOTION_DOT":"0.00001371","FILE":"3711774","GP_ID":"220965453","MEAN_MOTION":"15.06391760","PERIAPSIS":"545.676","CLASSIFICATION_TYPE":"U","REF_FRAME":"TEME","MEAN_MOTION_DDOT":"0.0000000000000","RA_OF_ASC_NODE":"336.0811","LAUNCH_DATE":"2020-08-07","CENTER_NAME":"EARTH","REV_AT_EPOCH":"13203","TIME_SYSTEM":"UTC"},{"REV_AT_EPOCH":"13201","CENTER_NAME":"EARTH","LAUNCH_DATE":"2020-08-07","MEAN_MOTION_DDOT":"0.0000000000000","RA_OF_ASC_NODE":"335.8718","REF_FRAME":"TEME","TIME_SYSTEM":"UTC","OBJECT_ID":"2020-055BC","SEMIMAJOR_AXIS":"6925.339","EPHEMERIS_TYPE":"0","COUNTRY_CODE":"US","MEAN_ANOMALY":"309.8265","TLE_LINE2":"2 46077  53.0576 335.8718 0002114  50.2910 309.8265 15.06403216132010","CLASSIFICATION_TYPE":"U","MEAN_MOTION_DOT":"0.00000697","MEAN_MOTION":"15.06403216","GP_ID":"220964707","FILE":"3711774","PERIAPSIS":"545.740","ECCENTRICITY":"0.00021140","DECAY_DATE":null,"PERIOD":"95.592","MEAN_ELEMENT_THEORY":"SGP4","OBJECT_NAME":"STARLINK-1559","RCS_SIZE":"LARGE","ELEMENT_SET_NO":"999","INCLINATION":"53.0576","TLE_LINE1":"1 46077U 20055BC  22353.69587452  .00000697  00000-0  65708-4 0  9999","SITE":"AFETR","NORAD_CAT_ID":"46077","APOAPSIS":"548.668","EPOCH":"2022-12-19T16:42:03.558528","ARG_OF_PERICENTER":"50.2910","OBJECT_TYPE":"PAYLOAD","BSTAR":"0.00006570800000"},{"LAUNCH_DATE":"2020-08-07","MEAN_MOTION_DDOT":"0.0000000000000","REF_FRAME":"TEME","RA_OF_ASC_NODE":"335.0671","CENTER_NAME":"EARTH","REV_AT_EPOCH":"13155","TIME_SYSTEM":"UTC","TLE_LINE2":"2 46078  53.0547 335.0671 0002500  39.4183 320.6987 15.06416033131550","MEAN_ANOMALY":"320.6987","COUNTRY_CODE":"US","SEMIMAJOR_AXIS":"6925.299","OBJECT_ID":"2020-055BD","EPHEMERIS_TYPE":"0","ECCENTRICITY":"0.00025000","DECAY_DATE":null,"CLASSIFICATION_TYPE":"U","GP_ID":"220942429","PERIAPSIS":"545.433","FILE":"3711652","MEAN_MOTION":"15.06416033","MEAN_MOTION_DOT":"0.00008657","OBJECT_NAME":"STARLINK-1563","MEAN_ELEMENT_THEORY":"SGP4","PERIOD":"95.591","ELEMENT_SET_NO":"999","RCS_SIZE":"LARGE","SITE":"AFETR","TLE_LINE1":"1 46078U 20055BD  22353.87280452  .00008657  00000-0  59907-3 0  9997","INCLINATION":"53.0547","BSTAR":"0.00059907000000","OBJECT_TYPE":"PAYLOAD","APOAPSIS":"548.896","NORAD_CAT_ID":"46078","ARG_OF_PERICENTER":"39.4183","EPOCH":"2022-12-19T20:56:50.310528"},{"DECAY_DATE":null,"ECCENTRICITY":"0.00019970","MEAN_MOTION_DOT":"0.00003106","GP_ID":"220965207","FILE":"3711774","PERIAPSIS":"545.824","MEAN_MOTION":"15.06402002","CLASSIFICATION_TYPE":"U","MEAN_ANOMALY":"315.6853","COUNTRY_CODE":"US","TLE_LINE2":"2 46079  53.0576 336.0008 0001997  44.4296 315.6853 15.06402002132051","EPHEMERIS_TYPE":"0","OBJECT_ID":"2020-055BE","SEMIMAJOR_AXIS":"6925.342","TIME_SYSTEM":"UTC","MEAN_MOTION_DDOT":"0.0000000000000","RA_OF_ASC_NODE":"336.0008","REF_FRAME":"TEME","LAUNCH_DATE":"2020-08-07","CENTER_NAME":"EARTH","REV_AT_EPOCH":"13205","BSTAR":"0.00022732000000","OBJECT_TYPE":"PAYLOAD","EPOCH":"2022-12-19T15:59:36.312864","ARG_OF_PERICENTER":"44.4296","NORAD_CAT_ID":"46079","APOAPSIS":"548.590","SITE":"AFETR","TLE_LINE1":"1 46079U 20055BE  22353.66639251  .00003106  00000-0  22732-3 0  9990","INCLINATION":"53.0576","RCS_SIZE":"LARGE","ELEMENT_SET_NO":"999","PERIOD":"95.592","MEAN_ELEMENT_THEORY":"SGP4","OBJECT_NAME":"STARLINK-1566"},{"BSTAR":"0.00006567000000","OBJECT_TYPE":"PAYLOAD","APOAPSIS":"548.764","NORAD_CAT_ID":"46080","EPOCH":"2022-12-19T16:35:23.353728","ARG_OF_PERICENTER":"49.8830","PERIOD":"95.592","OBJECT_NAME":"STARLINK-1568","MEAN_ELEMENT_THEORY":"SGP4","RCS_SIZE":"LARGE","ELEMENT_SET_NO":"999","TLE_LINE1":"1 46080U 20055BF  22353.69124252  .00000696  00000-0  65670-4 0  9995","SITE":"AFETR","INCLINATION":"53.0549","MEAN_ANOMALY":"310.2354","COUNTRY_CODE":"US","TLE_LINE2":"2 46080  53.0549 335.8797 0002228  49.8830 310.2354 15.06397564132037","OBJECT_ID":"2020-055BF","SEMIMAJOR_AXIS":"6925.356","EPHEMERIS_TYPE":"0","ECCENTRICITY":"0.00022280","DECAY_DATE":null,"CLASSIFICATION_TYPE":"U","MEAN_MOTION_DOT":"0.00000696","GP_ID":"220965954","MEAN_MOTION":"15.06397564","FILE":"3711774","PERIAPSIS":"545.678","LAUNCH_DATE":"2020-08-07","MEAN_MOTION_DDOT":"0.0000000000000","REF_FRAME":"TEME","RA_OF_ASC_NODE":"335.8797","REV_AT_EPOCH":"13203","CENTER_NAME":"EARTH","TIME_SYSTEM":"UTC"},{"OBJECT_NAME":"STARLINK-1571","MEAN_ELEMENT_THEORY":"SGP4","PERIOD":"95.592","ELEMENT_SET_NO":"999","RCS_SIZE":"LARGE","INCLINATION":"53.0563","TLE_LINE1":"1 46081U 20055BG  22353.65901389  .00001569  00000-0  12421-3 0  9991","SITE":"AFETR","NORAD_CAT_ID":"46081","APOAPSIS":"549.494","ARG_OF_PERICENTER":"27.1641","EPOCH":"2022-12-19T15:48:58.800096","OBJECT_TYPE":"PAYLOAD","BSTAR":"0.00012421000000","REV_AT_EPOCH":"13204","CENTER_NAME":"EARTH","LAUNCH_DATE":"2020-08-07","REF_FRAME":"TEME","MEAN_MOTION_DDOT":"0.0000000000000","RA_OF_ASC_NODE":"336.0202","TIME_SYSTEM":"UTC","SEMIMAJOR_AXIS":"6925.331","OBJECT_ID":"2020-055BG","EPHEMERIS_TYPE":"0","TLE_LINE2":"2 46081  53.0563 336.0202 0003318  27.1641 332.9521 15.06405577132040","COUNTRY_CODE":"US","MEAN_ANOMALY":"332.9521","CLASSIFICATION_TYPE":"U","GP_ID":"220964208","MEAN_MOTION":"15.06405577","FILE":"3711774","PERIAPSIS":"544.899","MEAN_MOTION_DOT":"0.00001569","ECCENTRICITY":"0.00033180","DECAY_DATE":null},{"TIME_SYSTEM":"UTC","CENTER_NAME":"EARTH","REV_AT_EPOCH":"13205","LAUNCH_DATE":"2020-08-07","RA_OF_ASC_NODE":"335.9379","MEAN_MOTION_DDOT":"0.0000000000000","REF_FRAME":"TEME","CLASSIFICATION_TYPE":"U","MEAN_MOTION_DOT":"0.00002813","PERIAPSIS":"546.050","GP_ID":"220964457","FILE":"3711774","MEAN_MOTION":"15.06397922","ECCENTRICITY":"0.00016890","DECAY_DATE":null,"OBJECT_ID":"2020-055BH","SEMIMAJOR_AXIS":"6925.355","EPHEMERIS_TYPE":"0","MEAN_ANOMALY":"296.2445","COUNTRY_CODE":"US","TLE_LINE2":"2 46082  53.0559 335.9379 0001689  63.8718 296.2445 15.06397922132052","INCLINATION":"53.0559","SITE":"AFETR","TLE_LINE1":"1 46082U 20055BH  22353.68113857  .00002813  00000-0  20770-3 0  9999","PERIOD":"95.592","MEAN_ELEMENT_THEORY":"SGP4","OBJECT_NAME":"STARLINK-1578","RCS_SIZE":"LARGE","ELEMENT_SET_NO":"999","NORAD_CAT_ID":"46082","APOAPSIS":"548.390","EPOCH":"2022-12-19T16:20:50.372448","ARG_OF_PERICENTER":"63.8718","OBJECT_TYPE":"PAYLOAD","BSTAR":"0.00020770000000"},{"MEAN_ELEMENT_THEORY":"SGP4","OBJECT_NAME":"STARLINK-1579","PERIOD":"95.593","ELEMENT_SET_NO":"999","RCS_SIZE":"LARGE","INCLINATION":"53.0556","SITE":"AFETR","TLE_LINE1":"1 46083U 20055BJ  22353.65165486 -.00000793  00000-0 -34317-4 0  9992","NORAD_CAT_ID":"46083","APOAPSIS":"548.446","ARG_OF_PERICENTER":"58.8713","EPOCH":"2022-12-19T15:38:22.979904","BSTAR":"-0.00003431700000","OBJECT_TYPE":"PAYLOAD","REV_AT_EPOCH":"13204","CENTER_NAME":"EARTH","LAUNCH_DATE":"2020-08-07","REF_FRAME":"TEME","MEAN_MOTION_DDOT":"0.0000000000000","RA_OF_ASC_NODE":"336.0685","TIME_SYSTEM":"UTC","SEMIMAJOR_AXIS":"6925.368","OBJECT_ID":"2020-055BJ","EPHEMERIS_TYPE":"0","TLE_LINE2":"2 46083  53.0556 336.0685 0001752  58.8713 301.2448 15.06393715132047","COUNTRY_CODE":"US","MEAN_ANOMALY":"301.2448","CLASSIFICATION_TYPE":"U","GP_ID":"220965708","FILE":"3711774","MEAN_MOTION":"15.06393715","PERIAPSIS":"546.019","MEAN_MOTION_DOT":"-0.00000793","ECCENTRICITY":"0.00017520","DECAY_DATE":null},{"OBJECT_TYPE":"PAYLOAD","BSTAR":"0.00009768800000","EPOCH":"2022-12-19T19:37:14.136672","ARG_OF_PERICENTER":"65.0713","APOAPSIS":"548.422","NORAD_CAT_ID":"46117","RCS_SIZE":"LARGE","ELEMENT_SET_NO":"999","PERIOD":"95.593","OBJECT_NAME":"STARLINK-1585","MEAN_ELEMENT_THEORY":"SGP4","TLE_LINE1":"1 46117U 20057A   22353.81752473  .00001174  00000-0  97688-4 0  9990","SITE":"AFETR","INCLINATION":"53.0545","COUNTRY_CODE":"US","MEAN_ANOMALY":"295.0454","TLE_LINE2":"2 46117  53.0545 175.3235 0001714  65.0713 295.0454 15.06393090129113","EPHEMERIS_TYPE":"0","OBJECT_ID":"2020-057A","SEMIMAJOR_AXIS":"6925.370","DECAY_DATE":null,"ECCENTRICITY":"0.00017140","MEAN_MOTION_DOT":"0.00001174","GP_ID":"220965211","MEAN_MOTION":"15.06393090","FILE":"3711774","PERIAPSIS":"546.048","CLASSIFICATION_TYPE":"U","REF_FRAME":"TEME","MEAN_MOTION_DDOT":"0.0000000000000","RA_OF_ASC_NODE":"175.3235","LAUNCH_DATE":"2020-08-18","REV_AT_EPOCH":"12911","CENTER_NAME":"EARTH","TIME_SYSTEM":"UTC"},{"NORAD_CAT_ID":"46118","APOAPSIS":"548.316","EPOCH":"2022-12-19T19:50:30.509664","ARG_OF_PERICENTER":"81.9277","BSTAR":"0.00018498000000","OBJECT_TYPE":"PAYLOAD","INCLINATION":"53.0534","TLE_LINE1":"1 46118U 20057B   22353.82674201  .00002474  00000-0  18498-3 0  9999","SITE":"AFETR","PERIOD":"95.592","OBJECT_NAME":"STARLINK-1588","MEAN_ELEMENT_THEORY":"SGP4","RCS_SIZE":"LARGE","ELEMENT_SET_NO":"999","CLASSIFICATION_TYPE":"U","MEAN_MOTION_DOT":"0.00002474","FILE":"3711774","GP_ID":"220965958","PERIAPSIS":"546.144","MEAN_MOTION":"15.06394515","ECCENTRICITY":"0.00015680","DECAY_DATE":null,"OBJECT_ID":"2020-057B","SEMIMAJOR_AXIS":"6925.365","EPHEMERIS_TYPE":"0","MEAN_ANOMALY":"278.1890","COUNTRY_CODE":"US","TLE_LINE2":"2 46118  53.0534 195.2618 0001568  81.9277 278.1890 15.06394515130118","TIME_SYSTEM":"UTC","REV_AT_EPOCH":"13011","CENTER_NAME":"EARTH","LAUNCH_DATE":"2020-08-18","MEAN_MOTION_DDOT":"0.0000000000000","RA_OF_ASC_NODE":"195.2618","REF_FRAME":"TEME"}];
